NORAD_CAT_ID,OBJECT_NAME,OBJECT_TYPE,EPOCH,MEAN_MOTION,ECCENTRICITY,INCLINATION,RA_OF_ASC_NODE,ARG_OF_PERICENTER,MEAN_ANOMALY,BSTAR,MEAN_MOTION_DOT,MEAN_MOTION_DDOT,TLE_LINE0,TLE_LINE1,TLE_LINE2,SEMIMAJOR_AXIS,PERIOD,APOGEE,PERIGEE,DECAYED
52332.0,STARLINK-3831,PAYLOAD,2024-01-26 10:32:23,15.08843992,0.0001728,53.2181,80.3925,105.4235,254.6948,0.00016024,2.263e-05,0.0,0 STARLINK-3831,1 52332U 22045B   24026.43916442  .00002263  00000-0  16024-3 0  9994,2 52332  53.2181  80.3925 0001728 105.4235 254.6948 15.08843992 98905,6917.868,95.437,540.929,538.538,0.0
52332.0,STARLINK-3831,PAYLOAD,2024-01-27 08:47:48,15.08837315,0.000178,53.2189,76.2287,115.1873,244.9304,7.6244e-05,9.25e-06,0.0,0 STARLINK-3831,1 52332U 22045B   24027.36653200  .00000925  00000-0  76244-4 0  9991,2 52332  53.2189  76.2287 0001780 115.1873 244.9304 15.08837315 99048,6917.889,95.438,540.985,538.522,0.0
52332.0,STARLINK-3831,PAYLOAD,2024-01-27 13:33:57,15.08839379,0.0001689,53.218,75.3302,101.764,258.3542,7.9126e-05,9.71e-06,0.0,0 STARLINK-3831,1 52332U 22045B   24027.56525148  .00000971  00000-0  79126-4 0  9995,2 52332  53.2180  75.3302 0001689 101.7640 258.3542 15.08839379 99076,6917.882,95.438,540.916,538.579,0.0
52332.0,STARLINK-3831,PAYLOAD,2024-01-28 11:49:22,15.08823707,0.0001765,53.2182,71.1653,96.8227,263.2966,0.00026155,3.875e-05,0.0,0 STARLINK-3831,1 52332U 22045B   24028.49261834  .00003875  00000-0  26155-3 0  9996,2 52332  53.2182  71.1653 0001765  96.8227 263.2966 15.08823707 99210,6917.93,95.439,541.016,538.574,0.0
52332.0,STARLINK-3831,PAYLOAD,2024-01-29 10:04:45,15.08844527,0.0001879,53.218,67.0081,109.1422,250.9774,0.00012403,1.687e-05,0.0,0 STARLINK-3831,1 52332U 22045B   24029.41997006  .00001687  00000-0  12403-3 0  9996,2 52332  53.2180  67.0081 0001879 109.1422 250.9774 15.08844527 99356,6917.867,95.437,541.031,538.432,0.0
52332.0,STARLINK-3831,PAYLOAD,2024-01-30 08:20:08,15.08852925,0.0001733,53.218,62.8471,82.3834,277.7355,0.0001966,2.843e-05,0.0,0 STARLINK-3831,1 52332U 22045B   24030.34732168  .00002843  00000-0  19660-3 0  9993,2 52332  53.2180  62.8471 0001733  82.3834 277.7355 15.08852925 99498,6917.841,95.437,540.905,538.507,0.0
52332.0,STARLINK-3831,PAYLOAD,2024-01-31 11:21:42,15.08842656,0.0001782,53.2178,57.7928,72.0406,288.078,-2.7601e-05,-7.27e-06,0.0,0 STARLINK-3831,1 52332U 22045B   24031.47341342 -.00000727  00000-0 -27601-4 0  9994,2 52332  53.2178  57.7928 0001782  72.0406 288.0780 15.08842656 99666,6917.872,95.437,540.97,538.505,0.0
52332.0,STARLINK-3831,PAYLOAD,2024-02-01 11:12:29,15.08843459,0.0001892,53.2185,53.3272,100.5292,259.5913,-6.022e-05,-1.247e-05,0.0,0 STARLINK-3831,1 52332U 22045B   24032.46701236 -.00001247  00000-0 -60220-4 0  9998,2 52332  53.2185  53.3272 0001892 100.5292 259.5913 15.08843459 99810,6917.87,95.437,541.044,538.426,0.0
52332.0,STARLINK-3831,PAYLOAD,2024-02-02 04:41:44,15.08833974,0.000173,53.2186,50.0558,88.0259,272.0931,0.00011639,1.564e-05,0.0,0 STARLINK-3831,1 52332U 22045B   24033.19565667  .00001564  00000-0  11639-3 0  9994,2 52332  53.2186  50.0558 0001730  88.0259 272.0931 15.08833974 99929,6917.899,95.438,540.961,538.567,0.0
52332.0,STARLINK-3831,PAYLOAD,2024-02-02 11:03:17,15.08835777,0.0001734,53.2185,48.8661,89.9083,270.2107,0.00012864,1.76e-05,0.0,0 STARLINK-3831,1 52332U 22045B   24033.46061646  .00001760  00000-0  12864-3 0  9991,2 52332  53.2185  48.8661 0001734  89.9083 270.2107 15.08835777 99969,6917.893,95.438,540.958,538.559,0.0
52332.0,STARLINK-3831,PAYLOAD,2024-02-03 07:43:18,15.08840974,0.0001781,53.2181,45.0012,95.9354,264.1841,0.00010589,1.398e-05,0.0,0 STARLINK-3831,1 52332U 22045B   24034.32173697  .00001398  00000-0  10589-3 0  9996,2 52332  53.2181  45.0012 0001781  95.9354 264.1841 15.08840974100093,6917.877,95.437,540.974,538.51,0.0
52332.0,STARLINK-3831,PAYLOAD,2024-02-04 04:23:19,15.0883596,0.0001942,53.2184,41.1357,105.6057,254.515,4.3903e-05,4.11e-06,0.0,0 STARLINK-3831,1 52332U 22045B   24035.18286251  .00000411  00000-0  43903-4 0  9994,2 52332  53.2184  41.1357 0001942 105.6057 254.5150 15.08835960100223,6917.893,95.438,541.101,538.414,0.0
52332.0,STARLINK-3831,PAYLOAD,2024-02-04 05:58:42,15.08836767,0.0001937,53.2189,40.8385,105.2531,254.8675,4.9665e-05,5.02e-06,0.0,0 STARLINK-3831,1 52332U 22045B   24035.24910272  .00000502  00000-0  49665-4 0  9990,2 52332  53.2189  40.8385 0001937 105.2531 254.8675 15.08836767100234,6917.89,95.438,541.095,538.415,0.0
52332.0,STARLINK-3831,PAYLOAD,2024-02-05 07:24:52,15.08845206,0.0001744,53.2191,36.0822,97.6971,262.4219,8.1891e-05,1.016e-05,0.0,0 STARLINK-3831,1 52332U 22045B   24036.30893836  .00001016  00000-0  81891-4 0  9992,2 52332  53.2191  36.0822 0001744  97.6971 262.4219 15.08845206100392,6917.864,95.437,540.936,538.523,0.0
52332.0,STARLINK-3831,PAYLOAD,2024-02-06 04:04:53,15.0884025,0.0001603,53.2187,32.2164,92.1266,267.9909,7.4003e-05,8.9e-06,0.0,0 STARLINK-3831,1 52332U 22045B   24037.17006244  .00000890  00000-0  74003-4 0  9993,2 52332  53.2187  32.2164 0001603  92.1266 267.9909 15.08840250100520,6917.88,95.438,540.854,538.636,0.0
52332.0,STARLINK-3831,PAYLOAD,2024-02-06 08:51:02,15.08845,0.0001741,53.2189,31.3235,83.4504,276.6686,0.00016039,2.266e-05,0.0,0 STARLINK-3831,1 52332U 22045B   24037.36877848  .00002266  00000-0  16039-3 0  9993,2 52332  53.2189  31.3235 0001741  83.4504 276.6686 15.08845000100552,6917.865,95.437,540.935,538.526,0.0
52332.0,STARLINK-3831,PAYLOAD,2024-02-07 03:55:40,15.08844419,0.000164,53.2183,27.7537,91.0267,269.0913,1.7459e-05,-1e-07,0.0,0 STARLINK-3831,1 52332U 22045B   24038.16366132 -.00000010  00000-0  17459-4 0  9995,2 52332  53.2183  27.7537 0001640  91.0267 269.0913 15.08844419100674,6917.867,95.437,540.866,538.597,0.0
52332.0,STARLINK-3831,PAYLOAD,2024-02-07 05:31:03,15.08846073,0.0001842,53.2191,27.4546,79.1056,281.0144,3.4942e-05,2.68e-06,0.0,0 STARLINK-3831,1 52332U 22045B   24038.22990011  .00000268  00000-0  34942-4 0  9991,2 52332  53.2191  27.4546 0001842  79.1056 281.0144 15.08846073100686,6917.862,95.437,541.001,538.453,0.0
52332.0,STARLINK-3831,PAYLOAD,2024-02-08 02:11:04,15.08838741,0.0001694,53.2202,23.5961,79.8636,280.2548,6.9231e-05,8.14e-06,0.0,0 STARLINK-3831,1 52332U 22045B   24039.09102388  .00000814  00000-0  69231-4 0  9995,2 52332  53.2202  23.5961 0001694  79.8636 280.2548 15.08838741100810,6917.884,95.438,540.921,538.577,0.0
52332.0,STARLINK-3831,PAYLOAD,2024-02-08 08:32:36,15.08848069,0.0001609,53.2182,22.4012,99.2526,260.8648,6.0724e-05,6.79e-06,0.0,0 STARLINK-3831,1 52332U 22045B   24039.35597691  .00000679  00000-0  60724-4 0  9996,2 52332  53.2182  22.4012 0001609  99.2526 260.8648 15.08848069100855,6917.856,95.437,540.834,538.608,0.0
52332.0,STARLINK-3831,PAYLOAD,2024-02-09 03:37:14,15.08840083,0.000154,53.2177,18.8317,96.1886,263.9282,-2.7552e-05,-7.26e-06,0.0,0 STARLINK-3831,1 52332U 22045B   24040.15086611 -.00000726  00000-0 -27552-4 0  9998,2 52332  53.2177  18.8317 0001540  96.1886 263.9282 15.08840083100974,6917.88,95.438,540.81,538.68,0.0
52332.0,STARLINK-3831,PAYLOAD,2024-02-09 05:12:37,15.08841628,0.0001698,53.2193,18.5327,83.3152,276.8034,1.5595e-05,-4e-07,0.0,0 STARLINK-3831,1 52332U 22045B   24040.21710461 -.00000040  00000-0  15595-4 0  9994,2 52332  53.2193  18.5327 0001698  83.3152 276.8034 15.08841628100983,6917.875,95.437,540.915,538.566,0.0
52332.0,STARLINK-3831,PAYLOAD,2024-02-10 08:14:11,15.08843798,0.0001652,53.2189,13.4806,110.2177,249.8993,9.2365e-05,1.182e-05,0.0,0 STARLINK-3831,1 52332U 22045B   24041.34318382  .00001182  00000-0  92365-4 0  9992,2 52332  53.2189  13.4806 0001652 110.2177 249.8993 15.08843798101155,6917.869,95.437,540.877,538.591,0.0
52332.0,STARLINK-3831,PAYLOAD,2024-02-11 03:18:49,15.08841974,0.0001594,53.2192,9.9102,107.8761,252.2405,8.4086e-05,1.051e-05,0.0,0 STARLINK-3831,1 52332U 22045B   24042.13806761  .00001051  00000-0  84086-4 0  9999,2 52332  53.2192   9.9102 0001594 107.8761 252.2405 15.08841974101277,6917.874,95.437,540.842,538.637,0.0
52332.0,STARLINK-3831,PAYLOAD,2024-02-11 08:04:58,15.0884461,0.0001525,53.2187,9.0172,98.6518,261.4647,7.9764e-05,9.82e-06,0.0,0 STARLINK-3831,1 52332U 22045B   24042.33678626  .00000982  00000-0  79764-4 0  9997,2 52332  53.2187   9.0172 0001525  98.6518 261.4647 15.08844610101304,6917.866,95.437,540.786,538.676,0.0
52332.0,STARLINK-3831,PAYLOAD,2024-02-12 06:20:21,15.08859979,0.0001468,53.2185,4.8538,106.0253,254.0901,0.00028925,4.321e-05,0.0,0 STARLINK-3831,1 52332U 22045B   24043.26413636  .00004321  00000-0  28925-3 0  9991,2 52332  53.2185   4.8538 0001468 106.0253 254.0901 15.08859979101447,6917.819,95.436,540.7,538.669,0.0
52332.0,STARLINK-3831,PAYLOAD,2024-02-12 20:38:50,15.08832299,0.0001131,53.2189,2.1776,113.2762,246.8349,-8.1425e-05,-1.583e-05,0.0,0 STARLINK-3831,1 52332U 22045B   24043.86030951 -.00001583  00000-0 -81425-4 0  9996,2 52332  53.2189   2.1776 0001131 113.2762 246.8349 15.08832299101539,6917.904,95.438,540.551,538.987,0.0
52332.0,STARLINK-3831,PAYLOAD,2024-02-13 04:35:46,15.08840357,0.0001439,53.2182,0.6929,90.0647,270.051,1.6268e-06,-2.62e-06,0.0,0 STARLINK-3831,1 52332U 22045B   24044.19150707 -.00000262  00000-0  16268-5 0  9991,2 52332  53.2182   0.6929 0001439  90.0647 270.0510 15.08840357101588,6917.879,95.438,540.74,538.749,0.0
52332.0,STARLINK-3831,PAYLOAD,2024-02-13 20:29:38,15.08830788,0.00016,53.2187,357.7234,69.0552,291.0611,-1.4379e-05,-5.17e-06,0.0,0 STARLINK-3831,1 52332U 22045B   24044.85391684 -.00000517  00000-0 -14379-4 0  9999,2 52332  53.2187 357.7234 0001600  69.0552 291.0611 15.08830788101682,6917.909,95.438,540.88,538.667,0.0
52332.0,STARLINK-3831,PAYLOAD,2024-02-14 04:26:33,15.08845265,0.0001532,53.218,356.2372,85.6669,274.4498,3.4931e-05,2.68e-06,0.0,0 STARLINK-3831,1 52332U 22045B   24045.18510978  .00000268  00000-0  34931-4 0  9992,2 52332  53.2180 356.2372 0001532  85.6669 274.4498 15.08845265101739,6917.864,95.437,540.789,538.669,0.0
